[{"OBJECT_NAME":"STARLINK-35157","OBJECT_ID":"2025-218Z","EPOCH":"2026-03-09T14:44:34.046880","MEAN_MOTION":15.05653285,"ECCENTRICITY":0.0002182,"INCLINATION":97.6029,"RA_OF_ASC_NODE":292.9618,"ARG_OF_PERICENTER":37.5996,"MEAN_ANOMALY":322.5383,"EPHEMERIS_TYPE":0,"CLASSIFICATION_TYPE":"U","NORAD_CAT_ID":65814,"ELEMENT_SET_NO":999,"REV_AT_EPOCH":2496,"BSTAR":-0.001014,"MEAN_MOTION_DOT":-0.00014664,"MEAN_MOTION_DDOT":0},{"OBJECT_NAME":"CZ-2D R\/B","OBJECT_ID":"2010-027B","EPOCH":"2026-03-09T19:01:31.304352","MEAN_MOTION":15.02332282,"ECCENTRICITY":0.00475082,"INCLINATION":97.9913,"RA_OF_ASC_NODE":95.0303,"ARG_OF_PERICENTER":252.3591,"MEAN_ANOMALY":107.2442,"EPHEMERIS_TYPE":0,"CLASSIFICATION_TYPE":"U","NORAD_CAT_ID":36597,"ELEMENT_SET_NO":999,"REV_AT_EPOCH":85595,"BSTAR":0.00022535675,"MEAN_MOTION_DOT":2.983e-5,"MEAN_MOTION_DDOT":0}]
